H1 CPF  1  HTS 2022 11  1 12  8051 larets           NONE
H2  0304206 5557    27944 2022 11 01  0  0  0 2022 11 06  0  0  0   180 1 1  0 0 0
H5  0.0560 
H9 
10 0 59885  10440.00000  0   -6235177.741     651840.499    3234921.297
10 0 59885  10620.00000  0   -6691705.245    1006738.452    1995534.420
10 0 59885  10800.00000  0   -6894885.276    1333528.455     682734.624
10 0 59885  10980.00000  0   -6838231.560    1613530.731    -655189.774
10 0 59885  11160.00000  0   -6525337.857    1829760.368   -1969019.019
10 0 59885  11340.00000  0   -5969678.070    1967821.239   -3210480.478
10 0 59885  11520.00000  0   -5193986.357    2016685.457   -4334082.841
10 0 59885  11700.00000  0   -4229250.434    1969311.671   -5298813.374
10 0 59885  11880.00000  0   -3113389.109    1823075.597   -6069623.209
10 0 59885  12060.00000  0   -1889693.354    1579997.938   -6618655.816
10 0 59885  12240.00000  0    -605102.160    1246763.414   -6926190.487
10 0 59885  12420.00000  0     691609.466     834534.084   -6981279.482
10 0 59885  12600.00000  0    1951662.532     358569.347   -6782088.647
10 0 59885  12780.00000  0    3128083.635    -162337.890   -6335940.005
10 0 59885  12960.00000  0    4177432.231    -706590.900   -5659049.496
10 0 59885  13140.00000  0    5061392.516   -1250661.379   -4775971.657
10 0 59885  13320.00000  0    5748186.759   -1770078.312   -3718761.534
10 0 59885  13500.00000  0    6213755.695   -2240496.908   -2525858.849
10 0 59885  13680.00000  0    6442651.033   -2638802.740   -1240721.311
10 0 59885  13860.00000  0    6428593.104   -2944199.526      89750.891
10 0 59885  14040.00000  0    6174662.184   -3139225.897    1416940.883
10 0 59885  14220.00000  0    5693107.885   -3210647.965    2692323.728
10 0 59885  14400.00000  0    5004776.821   -3150178.824    3869276.338
10 0 59885  14580.00000  0    4138193.908   -2954985.499    4904802.936
10 0 59885  14760.00000  0    3128352.038   -2627963.712    5761108.115
10 0 59885  14940.00000  0    2015264.910   -2177767.749    6406960.323
10 0 59885  15120.00000  0     842358.404   -1618594.961    6818797.347
10 0 59885  15300.00000  0    -345231.650    -969738.683    6981550.702
10 0 59885  15480.00000  0   -1502390.424    -254923.803    6889171.863
10 0 59885  15660.00000  0   -2585725.323     498552.863    6544855.275
10 0 59885  15840.00000  0   -3555188.422    1260853.240    5960954.473
10 0 59885  16020.00000  0   -4375571.713    2000768.420    5158587.091
10 0 59885  16200.00000  0   -5017826.527    2686992.166    4166927.138
10 0 59885  16380.00000  0   -5460150.368    3289451.331    3022187.220
10 0 59885  16560.00000  0   -5688788.145    3780633.453    1766317.635
10 0 59885  16740.00000  0   -5698509.782    4136851.679     445460.139
10 0 59885  16920.00000  0   -5492727.145    4339375.626    -891791.913
10 0 59885  17100.00000  0   -5083239.913    4375365.022   -2196245.308
10 0 59885  17280.00000  0   -4489618.824    4238553.869   -3419990.260
10 0 59885  17460.00000  0   -3738257.365    3929642.198   -4518215.922
10 0 59885  17640.00000  0   -2861155.842    3456383.675   -5450870.141
10 0 59885  17820.00000  0   -1894514.369    2833375.731   -6184099.335
10 0 59885  18000.00000  0    -877206.212    2081570.587   -6691431.233
10 0 59885  18180.00000  0     150801.727    1227530.911   -6954664.470
10 0 59885  18360.00000  0    1150010.316     302470.368   -6964455.495
10 0 59885  18540.00000  0    2082885.021    -658887.476   -6720606.657
10 0 59885  18720.00000  0    2915242.342   -1619599.244   -6232048.456
10 0 59885  18900.00000  0    3617483.405   -2541897.643   -5516525.734
10 0 59885  19080.00000  0    4165645.396   -3388657.138   -4599996.201
10 0 59885  19260.00000  0    4542233.074   -4124884.422   -3515736.649
10 0 59885  19440.00000  0    4736795.134   -4719167.411   -2303180.791
10 0 59885  19620.00000  0    4746226.818   -5145027.391   -1006515.704
10 0 59885  19800.00000  0    4574772.884   -5382108.723     326925.339
10 0 59885  19980.00000  0    4233723.253   -5417138.424    1648411.535
10 0 59885  20160.00000  0    3740815.136   -5244602.270    2909630.064
10 0 59885  20340.00000  0    3119368.909   -4867100.651    4064484.072
10 0 59885  20520.00000  0    2397207.532   -4295369.504    5070795.767
10 0 59885  20700.00000  0    1605416.655   -3547965.957    5891845.713
10 0 59885  20880.00000  0     777006.038   -2650638.611    6497692.767
10 0 59885  21060.00000  0     -54466.531   -1635414.254    6866230.154
10 0 59885  21240.00000  0    -856246.672    -539444.624    6983955.673
10 0 59885  21420.00000  0   -1597662.275     596349.862    6846448.867
10 0 59885  21600.00000  0   -2251291.234    1728797.404    6458541.389
10 0 59885  21780.00000  0   -2793980.007    2814104.692    5834175.992
10 0 59885  21960.00000  0   -3207679.983    3809550.725    4995954.524
10 0 59885  22140.00000  0   -3480075.070    4675189.677    3974375.668
10 0 59885  22320.00000  0   -3604972.077    5375497.876    2806768.308
10 0 59885  22500.00000  0   -3582429.999    5880888.867    1535942.102
10 0 59885  22680.00000  0   -3418617.341    6169015.209     208601.128
10 0 59885  22860.00000  0   -3125402.394    6225793.001   -1126416.965
10 0 59885  23040.00000  0   -2719692.289    6046083.538   -2420010.015
10 0 59885  23220.00000  0   -2222548.233    5633981.097   -3624691.399
10 0 59885  23400.00000  0   -1658134.782    5002703.531   -4696377.103
10 0 59885  23580.00000  0   -1052568.654    4174103.045   -5596009.808
10 0 59885  23760.00000  0    -432726.540    3177835.281   -6290958.498
10 0 59885  23940.00000  0     174934.596    2050229.178   -6756154.641
10 0 59885  24120.00000  0     745489.039     832914.440   -6974929.068
10 0 59885  24300.00000  0    1256542.602    -428730.936   -6939547.584
10 0 59885  24480.00000  0    1689091.447   -1687264.134   -6651440.897
10 0 59885  24660.00000  0    2028211.602   -2894934.755   -6121131.673
10 0 59885  24840.00000  0    2263565.460   -4005467.823   -5367873.079
10 0 59885  25020.00000  0    2389710.786   -4975830.517   -4418994.028
10 0 59885  25200.00000  0    2406199.024   -5767908.415   -3308954.709
10 0 59885  25380.00000  0    2317459.575   -6350033.253   -2078141.805
10 0 59885  25560.00000  0    2132472.177   -6698297.218    -771425.239
10 0 59885  25740.00000  0    1864239.011   -6797580.984     563479.931
10 0 59885  25920.00000  0    1529079.892   -6642232.933    1877780.151
10 0 59885  26100.00000  0    1145785.519   -6236366.579    3123422.432
10 0 59885  26280.00000  0     734670.561   -5593750.067    4254884.182
10 0 59885  26460.00000  0     316577.778   -4737304.982    5230850.076
10 0 59885  26640.00000  0     -88116.081   -3698243.881    6015715.218
10 0 59885  26820.00000  0    -460442.509   -2514886.026    6580860.616
10 0 59885  27000.00000  0    -783690.253   -1231212.708    6905657.156
10 0 59885  27180.00000  0   -1044128.380     104771.780    6978185.785
10 0 59885  27360.00000  0   -1231578.226    1442828.461    6795663.451
10 0 59885  27540.00000  0   -1339812.455    2732362.119    6364558.629
10 0 59885  27720.00000  0   -1366768.053    3924329.836    5700394.989
10 0 59885  27900.00000  0   -1314566.615    4973120.778    4827242.180
10 0 59885  28080.00000  0   -1189339.226    5838344.203    3776897.059
10 0 59885  28260.00000  0   -1000861.123    6486450.948    2587763.742
10 0 59885  28440.00000  0    -762012.684    6892116.762    1303462.585
10 0 59885  28620.00000  0    -488080.643    7039308.779     -28796.001
10 0 59885  28800.00000  0    -195937.243    6921970.878   -1359998.313
10 0 59885  28980.00000  0      96857.277    6544285.408   -2641202.899
10 0 59885  29160.00000  0     372975.500    5920487.855   -3825404.195
10 0 59885  29340.00000  0     616219.307    5074264.610   -4869295.849
10 0 59885  29520.00000  0     812349.014    4037769.156   -5734863.377
10 0 59885  29700.00000  0     949802.127    2850314.497   -6390742.419
10 0 59885  29880.00000  0    1020267.317    1556812.742   -6813300.781
10 0 59885  30060.00000  0    1019093.109     206039.947   -6987420.894
10 0 59885  30240.00000  0     945518.593   -1151207.035   -6906981.224
10 0 59885  30420.00000  0     802719.298   -2464001.180   -6575030.285
10 0 59885  30600.00000  0     597671.200   -3683160.962   -6003664.806
10 0 59885  30780.00000  0     340835.782   -4763072.223   -5213618.101
10 0 59885  30960.00000  0      45677.386   -5663394.175   -4233551.530
10 0 59885  31140.00000  0    -271971.006   -6350591.673   -3099066.779
10 0 59885  31320.00000  0    -594670.362   -6799231.916   -1851453.914
10 0 59885  31500.00000  0    -904233.618   -6992985.334    -536209.308
10 0 59885  31680.00000  0   -1182638.645   -6925272.754     798630.722
10 0 59885  31860.00000  0   -1412951.010   -6599519.144    2104269.465
10 0 59885  32040.00000  0   -1580209.278   -6028998.723    3332968.879
10 0 59885  32220.00000  0   -1672223.814   -5236273.526    4439826.989
10 0 59885  32400.00000  0   -1680246.653   -4252258.691    5384430.204
10 0 59885  32580.00000  0   -1599484.567   -3114972.507    6132319.578
10 0 59885  32760.00000  0   -1429429.877   -1868025.923    6656221.843
10 0 59885  32940.00000  0   -1173993.905    -558929.492    6937004.964
10 0 59885  33120.00000  0    -841445.665     762718.191    6964347.150
10 0 59885  33300.00000  0    -444154.077    2047099.791    6737105.197
10 0 59885  33480.00000  0       1865.129    3246048.556    6263376.166
10 0 59885  33660.00000  0     477581.754    4314857.903    5560244.981
10 0 59885  33840.00000  0     961741.500    5213974.284    4653219.570
10 0 59885  34020.00000  0    1431790.306    5910512.830    3575356.058
10 0 59885  34200.00000  0    1864894.956    6379532.095    2366093.075
10 0 59885  34380.00000  0    2239021.829    6605012.419    1069812.518
10 0 59885  34560.00000  0    2534008.932    6580463.175    -265825.678
10 0 59885  34740.00000  0    2732577.121    6309125.028   -1591691.649
99
